ASTERIA                 
1 43020U 98067NH  18326.39369405  .00016799  00000-0  18543-3 0  9994
2 43020  51.6419 297.5021 0003192  58.2255 301.9051 15.63199760 57205
DELLINGR (RBLE)         
1 43021U 98067NJ  18326.56923180  .00007605  00000-0  99452-4 0  9995
2 43021  51.6396 300.8664 0003069  48.6150 311.5106 15.59726306 57172
OSIRIS-3U               
1 43027U 98067NL  18326.88376637  .00075890  00000-0  45364-3 0  9998
2 43027  51.6367 281.0942 0005175  74.5327 285.6244 15.77163747 57346
AEROCUBE 7B             
1 43042U 17071F   18325.94333050  .00003795  00000-0  10401-3 0  9998
2 43042  51.6392 352.4329 0005292 114.1289 246.0249 15.39845742 53905
AEROCUBE 7C             
1 43043U 17071G   18325.94313234  .00003111  00000-0  87079-4 0  9999
2 43043  51.6397 352.4402 0005383 115.6167 244.5375 15.39845602 53879
CHEFSAT                 
1 43044U 17071H   18326.28273907  .00006007  00000-0  15084-3 0  9993
2 43044  51.6398 348.7624 0005196 114.8409 245.3117 15.41418503 53958
ASGARDIA 1              
1 43049U 17071N   18326.49549466  .00002995  00000-0  83851-4 0  9997
2 43049  51.6402 349.3915 0002770 130.7253 229.3973 15.39967289 53957
ISARA                   
1 43050U 17071P   18326.50169983  .00004592  00000-0  11873-3 0  9992
2 43050  51.6391 347.9564 0002576 124.9877 235.1350 15.41123756 53973
FAUNA                   
1 43052U 17071R   18325.49430501  .00003683  00000-0  10023-3 0  9994
2 43052  51.6402 353.9693 0002767 123.9410 236.1838 15.40151323 53806
CORVUS BC3              
1 43118U 18004H   18325.89121927  .00000873  00000-0  40772-4 0  9990
2 43118  97.5152  28.6473 0008969 262.1248  97.8970 15.22506478 47703
MICROMAS-2A             
1 43131U 18004W   18325.91076095  .00001945  00000-0  84875-4 0  9996
2 43131  97.5165  28.9631 0008092 264.8485  95.1828 15.23360975 47726
GOMX4-B                 
1 43196U 18015E   18326.87134449  .00000471  00000-0  22450-4 0  9997
2 43196  97.3656  92.7596 0018858 323.3952  36.5995 15.23759925 44694
GOMX4-A                 
1 43197U 18015F   18326.68905211  .00000369  00000-0  18213-4 0  9998
2 43197  97.3669  92.5904 0018490 325.1449 147.9299 15.23829829 44676
1KUNS-PF                
1 43466U 98067NP  18326.35225540  .00014736  00000-0  18921-3 0  9994
2 43466  51.6394 306.1577 0001524  55.2615 304.8521 15.59360176 30344
UBAKUSAT                
1 43467U 98067NQ  18326.46835835  .00009718  00000-0  13217-3 0  9998
2 43467  51.6385 306.1838 0003101  21.1238 338.9882 15.58293475 30367
BATSU-CS1 (IRAZU)       
1 43468U 98067NR  18325.92100135  .00018028  00000-0  22308-3 0  9992
2 43468  51.6391 307.7775 0001539  56.0068 304.1071 15.60165032130279
CUBERRT                 
1 43546U 98067NU  18325.47464049  .00022864  00000-0  30930-3 0  9999
2 43546  51.6389 313.0387 0006826  64.3601 295.8095 15.57600854 20318
TEMPEST-D               
1 43547U 98067NV  18325.90981107  .00004371  00000-0  69014-4 0  9996
2 43547  51.6393 311.4403 0006663  64.7319 295.4362 15.55804921 20057
RAINCUBE                
1 43548U 98067NW  18326.20391017  .00010633  00000-0  15217-3 0  9999
2 43548  51.6389 309.6555 0006816  73.8397 286.3344 15.56781219 20556
HALOSAT                 
1 43549U 98067NX  18326.39706052  .00009617  00000-0  13825-3 0  9992
2 43549  51.6390 308.6965 0006755  76.4194 283.7550 15.56791306 20142
ENDUROSAT ONE           
1 43551U 98067NZ  18326.42624706  .00012200  00000-0  16968-3 0  9997
2 43551  51.6387 308.1391 0007345  82.0084 278.1741 15.57390470 20560
EQUISAT                 
1 43552U 98067PA  18326.18106155  .00011239  00000-0  15882-3 0  9999
2 43552  51.6389 309.5043 0007507  81.8277 278.3566 15.57052692 20482
AEROCUBE 12A            
1 43556U 18046C   18326.19889251  .00000772  00000-0  40641-4 0  9990
2 43556  51.6430 336.2466 0009010  47.6854 312.4888 15.28033705 19679
AEROCUBE 12B            
1 43557U 18046D   18325.54651446  .00000578  00000-0  33705-4 0  9999
2 43557  51.6432 339.3906 0009036  45.4112 314.7603 15.27986205 19521
UITMSAT-1               
1 43589U 98067PD  18326.42021392  .00011071  00000-0  15861-3 0  9996
2 43589  51.6387 308.8468 0006871  89.6987 270.4792 15.56701779 16250
MAYA-1                  
1 43590U 98067PE  18326.16158835  .00012760  00000-0  18158-3 0  9990
2 43590  51.6388 310.1204 0006946  89.5723 270.6064 15.56723285 16145
BHUTAN-1                
1 43591U 98067PF  18325.96638989  .00012764  00000-0  18137-3 0  9992
2 43591  51.6388 311.0669 0007005  90.0419 270.1375 15.56761329 16115
SIRIUSSAT-1             
1 43595U 98067PG  18326.44644300  .00010557  00000-0  15396-3 0  9996
2 43595  51.6387 309.0183 0004616  51.1390 309.0013 15.56285144 15360
SIRIUSSAT-2             
1 43596U 98067PH  18326.45557409  .00010088  00000-0  14825-3 0  9996
2 43596  51.6398 309.0891 0005289  53.0428 307.1047 15.56130400 15369
TANUSHA-3               
1 43597U 98067PJ  18326.44445912  .00012834  00000-0  18404-3 0  9999
2 43597  51.6375 308.9953 0004878  64.1008 296.0486 15.56518149 15365
SURFSAT                 
1 43614U 18070B   18326.12941937  .00002705  00000-0  75739-4 0  9999
2 43614  93.0323 277.4392 0018861  35.9755 324.2764 15.36531362 10376
CP-7 (DAVE)             
1 43615U 18070C   18326.12918103  .00002588  00000-0  72486-4 0  9994
2 43615  93.0319 277.4393 0018697  36.2803 323.9714 15.36528231 10370
ELFIN-B                 
1 43616U 18070D   18326.38552350 -.00000006  00000-0  00000+0 0  9993
2 43616  93.0254 277.5123 0020889  36.1893 324.1296 15.36677281 10418
ELFIN-A                 
1 43617U 18070E   18326.64461103 -.00000006  00000-0  00000+0 0  9998
2 43617  93.0308 277.6742 0019455  33.2608 326.9951 15.36714661 10452
DEBRISSAT-1             
1 43621U 98067PM  18326.86291168  .00083199  00000-0  89481-3 0  9990
2 43621  51.6469 305.1055 0008775  72.1540 288.0455 15.62972472 10440
CUBEBEL-1 (BSUSAT-1)    
1 43666U 18083E   18326.82928419  .00000798  00000-0  43613-4 0  9993
2 43666  97.5390 347.5789 0014948 184.3189 295.0470 15.17136799  3765
DEBRISSAT-2             
1 43680U 98067PR  18326.88075322  .00015086  00000-0  21884-3 0  9992
2 43680  51.6404 306.6577 0005134  71.5744 288.5837 15.56043788 24170
